[{"OBJECT_NAME":"STARLINK-5078","OBJECT_ID":"2022-177AP","EPOCH":"2026-03-09T22:00:01.999584","MEAN_MOTION":15.07993689,"ECCENTRICITY":6.649e-5,"INCLINATION":43.0006,"RA_OF_ASC_NODE":119.0603,"ARG_OF_PERICENTER":249.4798,"MEAN_ANOMALY":331.8571,"EPHEMERIS_TYPE":0,"CLASSIFICATION_TYPE":"U","NORAD_CAT_ID":54857,"ELEMENT_SET_NO":999,"REV_AT_EPOCH":567,"BSTAR":0.00361092,"MEAN_MOTION_DOT":0.00056732,"MEAN_MOTION_DDOT":0},{"OBJECT_NAME":"IRIDIUM 33 DEB","OBJECT_ID":"1997-051ACD","EPOCH":"2026-02-15T04:06:14.442336","MEAN_MOTION":15.0282309,"ECCENTRICITY":0.00183243,"INCLINATION":86.3384,"RA_OF_ASC_NODE":302.6959,"ARG_OF_PERICENTER":121.5358,"MEAN_ANOMALY":29.3036,"EPHEMERIS_TYPE":0,"CLASSIFICATION_TYPE":"U","NORAD_CAT_ID":46971,"ELEMENT_SET_NO":999,"REV_AT_EPOCH":65196,"BSTAR":0.0024316654,"MEAN_MOTION_DOT":0.00032805,"MEAN_MOTION_DDOT":0}]
